[{"OBJECT_NAME":"STARLINK-1523","OBJECT_ID":"2020-055B","EPOCH":"2026-03-10T00:00:02.999808","MEAN_MOTION":15.18858191,"ECCENTRICITY":1.299e-5,"INCLINATION":53.1064,"RA_OF_ASC_NODE":124.8251,"ARG_OF_PERICENTER":79.5973,"MEAN_ANOMALY":273.0855,"EPHEMERIS_TYPE":0,"CLASSIFICATION_TYPE":"U","NORAD_CAT_ID":46028,"ELEMENT_SET_NO":999,"REV_AT_EPOCH":574,"BSTAR":0.0058060297,"MEAN_MOTION_DOT":0.00124296,"MEAN_MOTION_DDOT":0},{"OBJECT_NAME":"SPACEEYE-T1","OBJECT_ID":"2025-052V","EPOCH":"2026-03-09T15:50:33.246528","MEAN_MOTION":15.21501707,"ECCENTRICITY":0.00061242,"INCLINATION":97.4063,"RA_OF_ASC_NODE":322.8058,"ARG_OF_PERICENTER":126.7741,"MEAN_ANOMALY":233.4058,"EPHEMERIS_TYPE":0,"CLASSIFICATION_TYPE":"U","NORAD_CAT_ID":63229,"ELEMENT_SET_NO":999,"REV_AT_EPOCH":5470,"BSTAR":0.00031827215,"MEAN_MOTION_DOT":7.097e-5,"MEAN_MOTION_DDOT":0}]
